satname,norad_id,inclination_deg,eccentricity,mean_motion_rev_per_day,perigee_km,apogee_km,l1,l2
STARLINK-1470,45772,53.0514,0.0006182,15.21731923,496.3639534988033,504.86884420114075,1 45772U 20038AU  25360.59354780  .00054330  00000+0  23638-2 0  9993,2 45772  53.0514 151.9648 0006182 118.1201 242.0420 15.21731923305927
STARLINK-1482,45773,53.0561,0.0001425,15.06397473,546.2324395669948,548.2061661133039,1 45773U 20038AV  25360.73717354  .00001507  00000+0  12002-3 0  9992,2 45773  53.0561 164.1137 0001425  80.7583 279.3567 15.06397473305769
STARLINK-1496,45780,53.0539,0.0001349,15.27785694,481.5077523848904,483.3587342365363,1 45780U 20038BC  25360.91668980  .02039290  00000+0  66779-1 0  9990,2 45780  53.0539 162.4892 0001349 101.4217  35.8158 15.27785694  5735
STARLINK-1497,45781,53.0319,0.0003178,15.7347755,346.82910889037976,351.10485618167877,1 45781U 20038BD  25360.91668980  .00228007  00000+0  15661-2 0  9990,2 45781  53.0319  85.8311 0003178   4.1984 104.1089 15.73477550  6002
STARLINK-1510,45784,53.0192,0.0007201,16.03679827,259.4549305465862,269.0212791726044,1 45784U 20038BG  25360.67627315  .00582878  16996-3  89689-3 0  9999,2 45784  53.0192  54.4539 0007201   3.7692 356.3391 16.03679827307297
STARLINK-1513,45786,53.0558,0.0001479,15.06396824,546.1970314465743,548.2455524293291,1 45786U 20038BJ  25360.73348750  .00002044  00000+0  15608-3 0  9998,2 45786  53.0558 164.1316 0001479  88.6158 271.5000 15.06396824305767
STARLINK-1522,46027,53.057,0.0001337,15.06395349,546.2998916120396,548.1517336281331,1 46027U 20055A   25360.64778630  .00000750  00000+0  69221-4 0  9993,2 46027  53.0570  94.5165 0001337  92.2707 267.8435 15.06395349297875
STARLINK-1523,46028,53.0553,7.84e-05,15.06392603,546.6912796663473,547.7771778750193,1 46028U 20055B   25360.46348618  .00002545  00000+0  18971-3 0  9992,2 46028  53.0553  95.3448 0000784 100.2055 259.9022 15.06392603297864
STARLINK-1526,46029,53.0564,0.0001444,15.06399662,546.212573378436,548.2126143411433,1 46029U 20055C   25360.65514985  .00004215  00000+0  30167-3 0  9993,2 46029  53.0564  94.4816 0001444  97.5709 262.5444 15.06399662297886
STARLINK-1555,46032,53.0561,0.0001088,15.06416963,546.4060970075134,547.9130415409873,1 46032U 20055F   25360.57406544 -.00004279  00000+0 -26842-3 0  9996,2 46032  53.0561  94.8474 0001088  80.8835 279.2277 15.06416963297872
STARLINK-1556,46033,53.0544,0.0001226,15.0641965,546.3022938232771,548.000374522816,1 46033U 20055G   25360.68832500  .00009011  00000+0  62272-3 0  9998,2 46033  53.0544  94.3328 0001226  97.0043 263.1086 15.06419650297867
STARLINK-1557,46034,53.0568,0.0001186,15.06410022,546.3594994259265,548.0021848180777,1 46034U 20055H   25360.55930330  .00002118  00000+0  16098-3 0  9991,2 46034  53.0568  94.9123 0001186  89.8440 270.2685 15.06410022297844
STARLINK-1558,46035,53.0544,0.0001332,15.06386067,546.3317987897453,548.176723021651,1 46035U 20055J   25360.50034933  .00002215  00000+0  16763-3 0  9998,2 46035  53.0544  95.1794 0001332  99.3160 260.7980 15.06386067297869
STARLINK-1560,46036,53.0549,0.0001271,15.06392682,546.3537719926862,548.1142012974924,1 46036U 20055K   25360.68464287  .00001538  00000+0  12213-3 0  9990,2 46036  53.0549  94.3525 0001271  93.5335 266.5799 15.06392682297895
STARLINK-1567,46038,53.0545,0.0001253,15.0638498,546.3898405150667,548.1253443999367,1 46038U 20055M   25359.50147300  .00001672  00000+0  13115-3 0  9996,2 46038  53.0545  99.6626 0001253 104.7215 255.3913 15.06384980297701
STARLINK-1569,46039,53.0536,0.0001286,15.06419515,546.2611557866549,548.0423400526197,1 46039U 20055N   25360.63672266  .00010513  00000+0  72326-3 0  9990,2 46039  53.0536  94.5662 0001286  95.6414 264.4722 15.06419515297871
STARLINK-1582,46043,53.0568,0.0001405,15.06408679,546.2119504458688,548.157965916118,1 46043U 20055S   25360.64409196  .00002732  00000+0  20218-3 0  9993,2 46043  53.0568  94.5329 0001405  93.6032 266.5117 15.06408679297878
STARLINK-1591,46045,53.0543,0.0001347,15.06404819,546.2639459754118,548.1296308980181,1 46045U 20055U   25360.66989963  .00006194  00000+0  43428-3 0  9996,2 46045  53.0543  94.4156 0001347  95.3646 264.7497 15.06404819297867
STARLINK-1524,46047,53.0555,0.000126,15.06395498,546.3527602973845,548.0979516110847,1 46047U 20055W   25360.55655339  .00003123  00000+0  22849-3 0  9996,2 46047  53.0555  84.9270 0001260 102.4631 257.6499 15.06395498298003
STARLINK-1527,46048,53.0563,0.0001397,15.06414311,546.2002320654874,548.1351621978665,1 46048U 20055X   25360.55286147  .00002948  00000+0  21665-3 0  9993,2 46048  53.0563  84.9414 0001397  91.4811 268.6338 15.06414311297987
STARLINK-1540,46051,53.0556,0.0001209,15.06413387,546.3332593349469,548.007798695463,1 46051U 20055AA  25360.65237709  .00002595  00000+0  19295-3 0  9992,2 46051  53.0556  84.4950 0001209  93.1162 266.9966 15.06413387298030
STARLINK-1541,46052,53.057,0.0001398,15.0639689,546.2529245958194,548.1892547176876,1 46052U 20055AB  25360.50495965  .00000199  00000+0  32235-4 0  9995,2 46052  53.0570  85.1582 0001398  92.3004 267.8145 15.06396890297971
STARLINK-1543,46053,53.056,0.0001278,15.06386202,546.36878219353,548.1389120940594,1 46053U 20055AC  25360.50864786  .00002816  00000+0  20796-3 0  9993,2 46053  53.0560  85.1395 0001278  92.0632 268.0504 15.06386202298007
STARLINK-1548,46054,53.0558,0.0001057,15.06437149,546.365706635278,547.8297012516914,1 46054U 20055AD  25360.64867929  .00002803  00000+0  20675-3 0  9993,2 46054  53.0558  84.5104 0001057  99.3557 260.7551 15.06437149298027
STARLINK-1554,46055,53.0546,0.0001094,15.06425923,546.3744843757067,547.8897332567149,1 46055U 20055AE  25360.50127980  .00013426  00000+0  91790-3 0  9994,2 46055  53.0546  85.1724 0001094 114.3640 245.7463 15.06425923298002
STARLINK-1564,46058,53.0572,0.0001298,15.06398741,546.3165058509621,548.1143273383104,1 46058U 20055AH  25360.64507964 -.00000219  00000+0  42154-5 0  9995,2 46058  53.0572  84.9915 0001298  88.5027 271.6110 15.06398741298015
STARLINK-1570,46059,53.0563,0.0001164,15.06389276,546.4383112507794,548.0505400466709,1 46059U 20055AJ  25360.47546808  .00001032  00000+0  88185-4 0  9993,2 46059  53.0563  85.2929 0001164  90.1535 269.9588 15.06389276297954
STARLINK-1572,46060,53.0543,0.0001279,15.06429127,546.2365486536073,548.0080299798146,1 46060U 20055AK  25360.67081485  .00013308  00000+0  90987-3 0  9993,2 46060  53.0543  84.4121 0001279  96.9040 263.2094 15.06429127297994
